#dP2023  2  4 18  0  0.00000000      96 __u+U ITR00 EXT  IAC
## 2247 583200.00000000   900.00000000 59979 0.7500000000000
+  119   C06C07C08C09C10C11C12C13C14C16C19C20C21C22C23C24C25
+        C26C27C28C29C30C32C33C34C35C36C37C38C39C40C41C42C43
+        C44C45C46E01E02E03E04E05E07E08E09E10E11E12E14E15E18
+        E19E21E24E25E26E27E30E31E33E34E36G01G02G03G04G05G06
+        G07G08G09G10G11G12G13G14G15G16G17G18G19G20G21G22G23
+        G24G25G26G27G28G29G30G31G32J02J03J04R01R02R03R04R05
+        R07R08R09R11R12R13R14R15R16R17R18R19R20R21R22R24R25
++        10 11  9 10 10 10  9  8  9 10  7  8  9  7  8  9  9
++         9  9  9  8  7  9  9  9  8  8  8  9 10 10  9  8 10
++         7  7  8  7  8  7  7  7  9  8  8  7  7  7  6  7  8
++         8  7  8  8  7  8  7  7  8  7  7  7  7  7  8  6  7
++         7  7  7  8  7  7  7  7  7  7  7  7  7  6  8  7  7
++         7  7  7  7 10  8  6  6  7  9 10 10  7  8  9  8  6
++         8 10  8  7  8  9  9  7  7  9  7  9  8  8  7  8  9
%c M  cc GPS ccc cccc cccc cccc cccc ccccc ccccc ccccc ccccc
%c cc cc ccc ccc cccc cccc cccc cccc ccccc ccccc ccccc ccccc
%f  0.0000000  0.000000000  0.00000000000  0.000000000000000
%f  0.0000000  0.000000000  0.00000000000  0.000000000000000
%i    0    0    0    0      0      0      0      0         0
%i    0    0    0    0      0      0      0      0         0
/* IAC                                ULTRA-RAPID PREDICTION
/* S/V CLOCKS ARE ALIGNED TO GNSS TIME                      
/* G:C1WC2W R:C1PC2P E:C1XC5X C:C2IC6I J:C1CC2S             
/* PCV:IGS20_2239 OL/AL:FES2004  NONE     YN ORB:CoN CLK:CoN
*  2023 02 05  3 30  0.00000000
PC06 -16254.154547  25532.224191  29248.277736   -190.029256
PC07 -10248.602908  40788.421051   4049.565593    159.751249
PC08   1748.087117  27129.233278 -32147.818690    527.253911
PC09  -6653.907510  25433.552860  33247.791454    546.973835
PC10  -5541.520027  42040.479171  -1391.869874     17.988148
PC11 -22605.317641  14413.825216  -7705.098326   -138.410108
PC12 -25896.813621   3627.267748   9789.885752    435.184039
PC13   6349.737512  30002.437888 -28641.462642    200.216650
PC14 -12436.921349  20192.821162 -14730.514881    444.384668
PC16 -17645.025073  25127.342914  28966.422799     66.396728
PC19   7431.766364 -26091.195471   6529.889439   -894.923346
PC20  15030.769755 -12682.416357  19803.258319    737.719528
PC21 -14120.986557  -9428.700997 -22124.171884   -912.424368
PC22  -4825.339082 -25080.040358 -11217.597563   -649.245296
PC23  12852.076944  21154.147042  12873.826164   -875.117266
PC24 -21153.664418    613.215763  18185.239607   -451.002756
PC25  -4442.447948  16369.992864  22142.556492     66.817736
PC26 -24276.827879 -12916.150158   4847.103382    -74.272894
PC27  22388.315761   2966.343562 -16421.164826     92.059303
PC28   6929.057372  14339.966378 -22909.389508     66.884263
PC29  13637.133746 -18514.059618  15812.045319     76.840643
PC30  25631.627236 -11004.816659  -1218.094630      1.214196
PC32  14197.176270   9427.002964  22117.341511   -630.427705
PC33  -7308.058934  26124.453419  -6569.362155   -875.104558
PC34 -25303.749735  11733.789684    -10.007576     99.149373
PC35  -6083.810985 -14796.538556  22858.389008    685.869923
PC36   5477.817725 -15884.297377 -22267.114349   -646.536871
PC37  23640.743675  14370.573017  -3534.499264   -828.789659
PC38  -7309.747921  23613.484721 -34083.130444     56.663012
PC39 -23927.012715  25117.360038  23834.236647     -1.696394
PC40 -16099.595046  38480.269316   6884.820074    -14.302548
PC41   4596.500119  25370.235309  10733.293691   -574.799101
PC42 -15282.507394  11421.019597 -20326.249286   -854.802314
PC43 -14365.780001  18461.465838 -15203.613106      5.593280
PC44 -22374.403245  -2392.880127  16472.225385      5.476019
PC45 -13245.848374 -21104.499904 -12601.216784    -56.426374
PC46  20065.975658  -2164.013444 -19263.278617    -31.245266
PE01   3187.414660 -23806.659121 -17312.511205   -600.059768
PE02  -2877.430571  24031.123090  17016.092804     18.902225
PE03 -12997.193180  25503.872057   7549.091911   -646.880023
PE04  -3518.101353 -20087.397808 -21450.795427    -51.401837
PE05 -22254.481602  16028.820877 -11130.071348    -98.408762
PE07  18335.851708   2768.707239  23074.824762    -20.526219
PE08   3341.750501  20092.494939  21479.902613    -30.912155
PE09 -18136.950339  -2829.876053 -23221.531134   -824.895819
PE10 -22379.614482 -12487.624876  14811.384565   -510.117097
PE11 -28279.529912  -7069.409313   5086.684284    755.731136
PE12 -13474.858762 -15645.620507  21204.293564   -410.379626
PE14  12845.734246  15299.558733 -23833.981624    133.239574
PE15  13191.823373  15611.394176 -21403.367280    689.446706
PE18 -20030.336858    -80.043034  16865.844072   -427.698915
PE19  14977.464619 -25023.459652  -5085.165515  -3312.900545
PE21  14803.301342  -7944.385818 -24377.374675   -510.324961
PE24 -18864.541523 -14631.530521  17499.096105  -1096.707520
PE25 -14963.233808   7572.436655  24389.571753   -598.704332
PE26  25809.707750  -5440.880034  13445.265472      9.115002
PE27  18972.331743  13693.652831 -18123.762568   -504.641302
PE30  11434.242953  27283.347636   -626.045258  -1216.951089
PE31 -11930.206616 -27067.312793   1254.752594   -515.185417
PE33   9327.253214 -14435.645690  24110.759332   -452.725493
PE34  -9108.997421  14501.807867 -24142.324647    -28.456082
PE36 -26239.159049   4877.935478 -12780.268519     -7.718872
PG01  17662.088743  13795.039541 -14839.962379    216.147117
PG02 -20287.707910 -11486.502422  13133.712503   -622.934642
PG03  12726.775583  22152.765561   7354.547039   -366.602046
PG04   9401.043684  12062.049187  21715.848842    -34.259082
PG05  -4416.085426 -25073.862023   7176.360131   -114.685599
PG06  19955.847783  -6809.192164  16276.245394    568.500389
PG07  25763.705826   7145.764925   2643.341261    246.773120
PG08   -743.447607  19910.090977 -17421.945279   -106.968998
PG09  17513.509828    982.573335  19881.545149   -224.034432
PG10 -13745.372689   5453.481376 -21883.020349    -23.373721
PG11   7146.486807 -13662.990831  21634.599667    -95.918099
PG12 -10325.014095 -23779.282198   5738.886193   -336.517735
PG13   9504.789985 -20664.709487 -13727.454262    470.951609
PG14  15319.693933  -2598.954978 -21541.274454    -34.430299
PG15  -2357.989300 -20067.934734 -17551.968480     10.688401
PG16   -568.928896  24561.971169   9170.010076   -521.406549
PG17  21381.218720 -11000.974334 -10954.428097    697.996851
PG18 -26179.374141  -4705.823744  -1462.771690   -127.541212
PG19  20140.229350 -17026.999000  -1633.706010    273.465882
PG20   2780.542937 -20480.188672  16829.989546    452.681585
PG21  10698.891764  14623.034187 -19099.176372    153.817734
PG22 -17792.068119  19491.747046   2408.280797    420.551085
PG23 -16749.480827  -7105.504195 -19397.031767      4.874728
PG24 -14337.246754 -14615.170054 -17484.594690    -60.290806
PG25 -15745.474559 -16871.817756  13080.165651    417.398804
PG26  -8401.943466  16345.295688  18944.864446    241.189475
PG27 -10788.093832  22209.655877  -9437.487908    109.969420
PG28 -21226.883907   6752.708994  14427.742721     -1.755209
PG29 -15275.801581  -4947.223262  21124.372095   -584.366153
PG30  24759.161952  -2059.150444  -9650.981792   -531.312764
PG31 -18984.525237   7997.425003  16843.294441   -208.347706
PG32 -20464.438598  14018.255259  -9046.395848   -386.363353
PJ02 -26467.272403  23289.176401  28167.891311     -0.800857
PJ03 -34151.572547  18663.409245 -11615.511064      0.093408
PJ04 -18530.622628  33532.035214 -12631.047006    122.098593
PR01 -10924.625461  -1744.185194 -22981.440970     22.477714
PR02 -12447.097830  16800.861954 -14516.532439    -23.321221
PR03  -6445.602136  24552.457025   2210.307044     71.917957
PR04   2681.256352  18484.791691  17394.668972    174.566445
PR05  10519.964507   2417.404295  23124.996113    107.243252
PR07   6169.507821 -24608.417955  -2868.048212     49.299944
PR08  -2883.146430 -18431.765857 -17353.793914    -69.345207
PR09  11270.857671  -4401.436372 -22451.256195    102.383560
PR11 -15134.562648 -19703.779083  -5745.455386     -0.916864
PR12 -19007.873933 -11143.516683  12888.913801     24.800340
PR13 -12252.695400   2663.525384  22192.554717    -31.675282
PR14   3105.161229  16681.258755  19055.640095     24.326600
PR15  15481.776327  19734.877553   4649.570029     91.287600
PR16  19093.354438  11315.510005 -12596.019779     10.872135
PR17  -8749.384347  11702.605899 -20904.710853    602.048668
PR18   9264.664339   8242.636771 -22281.106320     65.229290
PR19  21718.288575   1938.982990 -13234.564631   -220.768107
PR20  23345.824747  -7505.988420   7120.282994    -87.155261
PR21   7023.634150 -11508.902309  21653.062016   -370.889491
PR22  -9807.961685  -8725.249791  21896.921678     69.647191
PR24 -22772.101256   8593.430764  -7625.679236    144.536259
PR25   9529.283393 -11545.848049  20656.502301     53.569158
EOF
